{
  "type": "FeatureCollection",
  "features": [
    {
      "type": "Feature",
      "properties": {},
      "geometry": {
        "coordinates": [
          [
            [
              175.26136831388726,
              -41.73206355849841
            ],
            [
              176.58735269959305,
              -41.09935960797304
            ],
            [
              177.59576034008154,
              -39.75098929102538
            ],
            [
              178.76478671380687,
              -38.37651715113203
            ],
            [
              178.6412979718907,
              -37.34157670959323
            ],
            [
              177.02152591331247,
              -37.82019651951758
            ],
            [
              176.7513873318747,
              -38.37323967344721
            ],
            [
              176.45750227601457,
              -38.98350119430232
            ],
            [
              175.62277547171823,
              -39.38210101216769
            ],
            [
              174.58004053007295,
              -39.62427873454637
            ],
            [
              175.1210570687095,
              -40.17788982710571
            ],
            [
              174.3994086903988,
              -41.23649025563399
            ],
            [
              175.26136831388726,
              -41.73206355849841
            ]
          ]
        ],
        "type": "Polygon"
      }
    }
  ]
}